OBJECT BC
1 63260U 25052BC  25292.27091101  .00004030  00000-0  38772-3 0  9999
2 63260  97.7073 183.4073 0003236  70.2057 289.9512 14.93534137 32655
